STARLINK-31252          
1 59083U 24041K   24265.25001157  .00159363  00000+0  30127-2 0  9997
2 59083  43.0049  59.3558 0007638 334.7113 168.6065 15.47084696 32926
STARLINK-31261          
1 59084U 24041L   24265.19904719 -.00001269  00000+0 -38693-4 0  9998
2 59084  42.9982  85.2987 0000874 292.1888  67.8870 15.25914720 32634
STARLINK-31290          
1 59085U 24041M   24265.21243232  .00016298  00000+0  59279-3 0  9996
2 59085  43.0012  85.4075 0001869 283.1164  76.9479 15.28004247 32636
STARLINK-31279          
1 59086U 24041N   24265.19678559  .00002214  00000+0  94434-4 0  9994
2 59086  42.9976  85.2783 0001060 296.8484  63.2259 15.25920260 32631
STARLINK-31266          
1 59087U 24041P   24264.89664025 -.00001345  00000+0 -41595-4 0  9990
2 59087  42.9993  87.3291 0000933 254.0884 105.9864 15.25909284 32589
STARLINK-31313          
1 59088U 24041Q   24264.56709034  .00004727  00000+0  19039-3 0  9997
2 59088  43.0003  89.1534 0001003 251.7492 108.3250 15.25914042 32485
STARLINK-31307          
1 59089U 24041R   24264.91685811  .00003505  00000+0  14371-3 0  9990
2 59089  43.0003  86.6443 0001623 258.5949 101.4720 15.25925912 32582
STARLINK-31316          
1 59090U 24041S   24265.13804816 -.00000229  00000+0  18081-5 0  9990
2 59090  43.0065  62.3696 0002515 280.5384  79.5189 15.40696379 32798
STARLINK-31310          
1 59092U 24041U   24265.21489065  .00007536  00000+0  29767-3 0  9994
2 59092  43.0003  85.4062 0000565 302.4313  57.6483 15.25905736 32588
STARLINK-31343          
1 59093U 24041V   24264.60314330  .00001502  00000+0  67267-4 0  9994
2 59093  43.0045  88.5688 0001428 262.8024  97.2665 15.25910382 32530
STARLINK-31295          
1 59095U 24041X   24264.88307298  .00001678  00000+0  73992-4 0  9997
2 59095  43.0021  87.2194 0000781 296.2253  63.8517 15.25899826 32534
STARLINK-31291          
1 59096U 24041Y   24265.19001398  .00011307  00000+0  44183-3 0  9994
2 59096  43.0028  85.2306 0000667 292.9392  67.1389 15.25879477 32562
STARLINK-31312          
1 59152U 24044A   24264.57990791  .00003929  00000+0  10133-3 0  9994
2 59152  43.0002 219.8935 0000926 329.0363  31.0439 15.40682439 32055
STARLINK-31308          
1 59153U 24044B   24264.92292839 -.00007073  00000+0 -15487-3 0  9995
2 59153  43.0004 220.8567 0001098 297.0413  63.0332 15.42068837 32129
STARLINK-31270          
1 59154U 24044C   24264.98880095 -.00001277  00000+0 -38997-4 0  9991
2 59154  43.0056 243.8237 0001191 257.3114 102.7604 15.25889946 31863
STARLINK-31341          
1 59155U 24044D   24265.23040875  .00000057  00000+0  12009-4 0  9994
2 59155  42.9996 243.0771 0001125 287.2587  72.8141 15.25900017 31836
STARLINK-31338          
1 59156U 24044E   24265.22814309  .00000455  00000+0  27264-4 0  9996
2 59156  43.0019 243.0662 0001199 224.7368 135.3386 15.25883057 31568
STARLINK-31334          
1 59157U 24044F   24265.22587657  .00002489  00000+0  10497-3 0  9998
2 59157  43.0039 243.0522 0002154 288.8838  71.1780 15.25912285 31674
STARLINK-31297          
1 59158U 24044G   24264.98653300 -.00000017  00000+0  92038-5 0  9999
2 59158  43.0085 243.8087 0001124 291.9101  68.1630 15.25901303 31853
STARLINK-31182          
1 59159U 24044H   24265.22135943  .00000438  00000+0  26612-4 0  9996
2 59159  43.0039 243.0190 0001446 261.5332  98.5355 15.25899748 31889
STARLINK-31327          
1 59160U 24044J   24264.65695424  .00001605  00000+0  71183-4 0  9999
2 59160  43.0049 245.6391 0001830 262.4537  97.6107 15.25924200 31806
STARLINK-31256          
1 59161U 24044K   24265.21683603 -.00000114  00000+0  55020-5 0  9997
2 59161  43.0009 242.9876 0001327 265.2503  94.8196 15.25912432 31885
STARLINK-31272          
1 59162U 24044L   24265.21458260  .00000640  00000+0  34339-4 0  9999
2 59162  42.9991 242.9671 0001455 274.5337  85.5348 15.25895329 31833
STARLINK-31278          
1 59163U 24044M   24265.01593348  .00001704  00000+0  74973-4 0  9995
2 59163  42.9996 244.0548 0001547 263.1331  96.9344 15.25906975 31804
STARLINK-31309          
1 59164U 24044N   24265.21003914  .00000690  00000+0  36196-4 0  9991
2 59164  43.0008 242.9313 0001141 222.7991 137.2771 15.25914115 31898
STARLINK-31325          
1 59165U 24044P   24265.20778305  .00000033  00000+0  11125-4 0  9990
2 59165  43.0015 242.9116 0001635 241.7516 118.3170 15.25908828 31639
STARLINK-31342          
1 59166U 24044Q   24264.68182033  .00005540  00000+0  22119-3 0  9991
2 59166  42.9974 245.8375 0000674 161.0209 199.0667 15.25950981 31809
STARLINK-31298          
1 59167U 24044R   24265.00689084 -.00000399  00000+0 -54328-5 0  9995
2 59167  43.0039 243.9842 0001230 275.8520  84.2191 15.25898614 31598
STARLINK-31322          
1 59168U 24044S   24264.64755946  .00000521  00000+0  29738-4 0  9997
2 59168  43.0014 245.5650 0001207 288.6798  71.3922 15.25910809 31804
STARLINK-31329          
1 59169U 24044T   24264.97974542  .00000426  00000+0  26105-4 0  9998
2 59169  43.0016 243.7603 0000254 236.8548 123.2279 15.25908760 31641
STARLINK-31340          
1 59170U 24044U   24264.32306884 -.00002979  00000+0 -64081-4 0  9999
2 59170  43.0021 232.7516 0002354 256.0097 104.0498 15.40687180 31890
STARLINK-31344          
1 59171U 24044V   24264.97747649 -.00000562  00000+0 -11632-4 0  9999
2 59171  43.0046 243.7415 0001499 268.5022  91.5658 15.25906342 31854
STARLINK-31348          
1 59172U 24044W   24264.58515225 -.00000573  00000+0 -64445-5 0  9993
2 59172  43.0030 222.6095 0001509 265.3707  94.6978 15.40693665 32033
STARLINK-31289          
1 59173U 24044X   24264.99332385  .00001353  00000+0  61563-4 0  9995
2 59173  43.0074 243.8640 0001148 268.6022  91.4697 15.25906226 31864
STARLINK-31283          
1 59174U 24044Y   24265.25001157  .00029207  00000+0  70459-3 0  9997
2 59174  43.0028 219.0247 0001511 266.1195  86.5022 15.40664754 32176
STARLINK-31439          
1 59178U 24045A   24264.69432809  .00000192  00000+0  11864-4 0  9999
2 59178  43.0032 250.9788 0001267 231.4606 128.6137 15.40697010 31141
STARLINK-31410          
1 59179U 24045B   24264.66296530  .00001860  00000+0  51800-4 0  9993
2 59179  43.0054 250.7358 0001964 296.7246  63.3410 15.40693174 31141
STARLINK-31395          
1 59180U 24045C   24265.04074362 -.00002166  00000+0 -44620-4 0  9999
2 59180  43.0037 248.4117 0000714 250.2006 109.8774 15.40698466 31207
STARLINK-31486          
1 59181U 24045D   24265.01399999 -.00000157  00000+0  35271-5 0  9993
2 59181  43.0062 249.0846 0002039 289.5330  70.5306 15.40691260 31197
STARLINK-31411          
1 59182U 24045E   24264.68312863  .00000990  00000+0  30965-4 0  9999
2 59182  43.0052 250.8956 0001541 278.1287  81.9395 15.40693349 31140
STARLINK-31347          
1 59183U 24045F   24265.01936015  .00023322  00000+0  54490-3 0  9991
2 59183  43.0045 247.3650 0001007 252.1216 107.9531 15.41732163 31236
STARLINK-31382          
1 59184U 24045G   24264.65848323 -.00001376  00000+0 -25677-4 0  9998
2 59184  43.0026 250.6994 0001358 269.9845  90.0856 15.40695931 31149
STARLINK-31394          
1 59185U 24045H   24265.22836693 -.00002001  00000+0 -40646-4 0  9999
2 59185  43.0014 246.3904 0001110 248.2799 111.7940 15.40702726 31241
STARLINK-31403          
1 59186U 24045J   24265.18923497  .00001115  00000+0  33940-4 0  9996
2 59186  43.0004 232.0297 0000835 259.1329 100.9433 15.40705481 31306
STARLINK-31514          
1 59187U 24045K   24264.98487907 -.00002688  00000+0 -57104-4 0  9991
2 59187  43.0024 248.8512 0001391 269.1448  90.9249 15.40695375 31195
STARLINK-31478          
1 59188U 24045L   24264.67401785 -.00003427  00000+0 -74813-4 0  9996
2 59188  43.0054 249.9504 0002767 265.0932  94.9609 15.40690638 31150
STARLINK-31498          
1 59189U 24045M   24264.96022565 -.00000739  00000+0 -10420-4 0  9991
2 59189  43.0002 248.6612 0002013 294.9140  65.1507 15.40690883 31199
STARLINK-31563          
1 59190U 24045N   24264.67865002 -.00002864  00000+0 -61301-4 0  9997
2 59190  43.0044 250.8574 0001404 256.2241 103.8460 15.40712657 31142
STARLINK-31551          
1 59191U 24045P   24265.00503645 -.00003425  00000+0 -74748-4 0  9991
2 59191  43.0047 249.0067 0001533 255.7526 104.3160 15.40699807 31195
STARLINK-31536          
1 59192U 24045Q   24264.91668981  .00059989  00000+0  14339-2 0  9998
2 59192  43.0026 248.5746 0001188 256.7580 358.4390 15.40661793  5953
STARLINK-31548          
1 59193U 24045R   24265.04299991 -.00004853  00000+0 -10906-3 0  9994
2 59193  43.0015 248.4257 0000994 263.8258  96.2486 15.40682328 31200
STARLINK-31542          
1 59194U 24045S   24265.01174996 -.00001841  00000+0 -36805-4 0  9990
2 59194  43.0025 249.0548 0001332 249.1078 110.9636 15.40702130 31199
STARLINK-31554          
1 59195U 24045T   24264.91668981  .00067190  00000+0  16034-2 0  9998
2 59195  43.0020 248.7936 0001417 260.2433 267.8580 15.40666026  5795
STARLINK-31558          
1 59196U 24045U   24264.68537312 -.00000304  00000+0 -20119-7 0  9996
2 59196  43.0012 250.9042 0000547 217.3029 142.7789 15.40692562 31152
STARLINK-31275          
1 59197U 24045V   24264.65624392  .00000280  00000+0  13971-4 0  9995
2 59197  43.0033 250.6818 0001138 260.7707  99.3021 15.40699312 31141
STARLINK-31590          
1 59198U 24045W   24265.22177725  .00000039  00000+0  81841-5 0  9997
2 59198  43.0033 247.1838 0001171 228.0536 132.0220 15.40714215 31235
STARLINK-31567          
1 59199U 24045X   24264.67193222  .00000145  00000+0  10731-4 0  9993
2 59199  43.0048 250.8038 0001358 248.2291 111.8421 15.40699728 31143
STARLINK-31503          
1 59200U 24045Y   24264.66743937  .00000000  00000+0  72781-5 0  9993
2 59200  43.0022 250.7643 0002248 279.6736  80.3866 15.40698127 31145
STARLINK-31603          
1 59201U 24046A   24264.99934831  .00016085  00000+0  36554-3 0  9992
2 59201  53.1571 121.2282 0001502 278.8403  81.2434 15.43190007 30925
